[{"OBJECT_NAME":"FLOCK 4Q-13","OBJECT_ID":"2023-174CA","EPOCH":"2026-03-09T17:32:54.310560","MEAN_MOTION":15.46982108,"ECCENTRICITY":0.00076481,"INCLINATION":97.4011,"RA_OF_ASC_NODE":156.9768,"ARG_OF_PERICENTER":150.737,"MEAN_ANOMALY":209.431,"EPHEMERIS_TYPE":0,"CLASSIFICATION_TYPE":"U","NORAD_CAT_ID":58328,"ELEMENT_SET_NO":999,"REV_AT_EPOCH":13027,"BSTAR":0.00055847806,"MEAN_MOTION_DOT":0.00028176,"MEAN_MOTION_DDOT":0},{"OBJECT_NAME":"CZ-6A DEB","OBJECT_ID":"2022-151HS","EPOCH":"2026-03-09T17:22:45.085152","MEAN_MOTION":15.41172922,"ECCENTRICITY":0.00155715,"INCLINATION":98.621,"RA_OF_ASC_NODE":156.9362,"ARG_OF_PERICENTER":193.4859,"MEAN_ANOMALY":166.597,"EPHEMERIS_TYPE":0,"CLASSIFICATION_TYPE":"U","NORAD_CAT_ID":54490,"ELEMENT_SET_NO":999,"REV_AT_EPOCH":17689,"BSTAR":0.01144614,"MEAN_MOTION_DOT":0.00507986,"MEAN_MOTION_DDOT":0}]
